#cP2022  4  2  6  0  0.00000000     576 d+D   IGb14 EXT AIUB
## 2203 540000.00000000   300.00000000 59671 0.2500000000000
+   77   G01G02G03G04G05G06G07G08G09G10G11G12G13G14G15G16G17
+        G18G19G20G21G22G23G24G25G26G27G28G29G30G31G32R01R02
+        R03R04R05R07R08R09R12R13R14R15R17R18R19R20R21R22R24
+        E01E02E03E04E05E07E08E09E10E11E12E13E14E15E18E19E21
+        E24E25E26E27E30E31E33E34E36  0  0  0  0  0  0  0  0
++         6  7  6  8  7  6  7  7  6  8  8  7  7  7  7  7  7
++         8  7  7  7  7  7  6  7  7  7  7  7  7  7  6  8  6
++         7  6  7  7  7  7  7  8  8  8  8  7  8  9  8  8  8
++         8  6  5  8  5  6  6  6 10  6  7  7  8  9  6  8  6
++         6  6  9  6  6  6  8  8  9  0  0  0  0  0  0  0  0
%c M  cc GPS ccc cccc cccc cccc cccc ccccc ccccc ccccc ccccc
%c cc cc ccc ccc cccc cccc cccc cccc ccccc ccccc ccccc ccccc
%f  1.2500000  1.025000000  0.00000000000  0.000000000000000
%f  0.0000000  0.000000000  0.00000000000  0.000000000000000
%i    0    0    0    0      0      0      0      0         0
%i    0    0    0    0      0      0      0      0         0
/* Center for Orbit Determination in Europe (CODE)          
/* Ultra-rapid GRE orbits starting year-day 22092 06 hour   
/* Observed/predicted: 25/23 hours (data used up to 093G)   
/* PCV:IGS14      OL/AL:FES2014b NONE     YN ORB:CoN CLK:BRD
*  2022  4  3 20 20  0.00000000
PG01  14651.065648  -1130.881516  21860.416541    393.374587               P   P
PG02 -14661.415130 -19323.906901  -9992.474817   -652.887168               P   P
PG03  21205.453473 -10222.450559  12082.759946   -191.822452               P   P
PG04  24558.070802   -463.881524 -10204.447518   -178.781415               P   P
PG05 -15830.557773  -4364.189404 -21066.346362    -77.015291               P   P
PG06  -5118.575260 -25818.050106   3286.469232    253.952230               P   P
PG07   7887.332945 -17781.380222 -17465.634198    318.960248               P   P
PG08  26144.649529   5681.946532    248.728147    -62.469283               P   P
PG09  17244.248860  -9221.803951 -18052.039972   -345.981309               P   P
PG10  -8209.019259  21534.254740  13087.773948   -367.449458               P   P
PG11 -12847.938028 -20259.128067 -11421.347241    -50.289542               P   P
PG12 -21252.090827   5840.906643  14459.929596   -194.867529               P   P
PG13 -22106.004079 -13482.578033  -6450.456170    287.920718               P   P
PG14   9921.058158 -21448.912853  12037.045339    -99.709573               P   P
PG15 -26576.348156  -2799.124155    351.987036    -71.729146               P   P
PG16  12171.291966   9386.916063 -21965.796295   -487.914418               P   P
PG17    688.944842 -15337.431142  22100.616154    595.711298               P   P
PG18  -8015.334985  17702.313755 -18062.320223    204.327502               P   P
PG19  -7572.133775 -16497.137932  19197.980745    139.650867               P   P
PG20  -9277.221638 -13399.689851 -21002.823766    515.996627               P   P
PG21  17485.509370   9785.780739  18408.203595    160.101111               P   P
PG22  10417.418651  16870.849448  18168.730356    237.704102               P   P
PG23 -16317.974786  20719.349560   2654.885388    -12.161600               P   P
PG24 -16907.543216  -2805.166786  20086.869732    261.108579               P   P
PG25 -19682.936059  17198.979229   3492.612049    307.177637               P   P
PG26   2800.442637  18224.627740 -19095.519160    195.901372               P   P
PG27  21029.282671  12713.485177 -10782.108460    173.763104               P   P
PG28   2562.554709 -19246.994403  18739.784420    374.055264               P   P
PG29 -18884.834131   6258.869563 -17677.338361   -498.982108               P   P
PG30   2119.659008 -23802.795205 -11251.125707   -522.054935               P   P
PG31   6466.065144  25491.682633    394.981878   -171.847920               P   P
PG32   3318.306944  16028.045513  21090.972236    -97.935529               P   P
PR01  17666.538559 -11372.095896 -14447.040014      7.556689               P   P
PR02  -2003.266203 -10670.201113 -23034.095091    514.466720               P   P
PR03 -18976.154187  -3936.650479 -16504.748983     54.258249               P   P
PR04 -25023.665790   4840.702798   -883.544316    134.997021               P   P
PR05 -17317.891746  10880.113401  15245.883795     90.539408               P   P
PR07  19533.251649   3624.502706  16071.046078     33.426725               P   P
PR08  25030.660429  -4906.736372    906.518477    -64.434980               P   P
PR09  -1299.833723  23059.830100 -10894.620661     47.832854               P   P
PR12  10384.525277 -22330.680459  -6666.300256     17.761839               P   P
PR13   2175.078829 -23417.984571   9859.570683    -20.363810               P   P
PR14  -7970.319210 -10192.418222  21986.905069     76.117191               P   P
PR15 -12902.087448   8331.320175  20380.866794     97.097876               P   P
PR17 -18324.426312 -17038.826646  -5031.750921    514.667402               P   P
PR18 -16039.220122  -5246.088427 -19090.973901    112.409194               P   P
PR19  -6517.966137   8257.123304 -23239.210022   -184.010906               P   P
PR20   9220.724977  19993.064229 -12918.611933    -67.987128               P   P
PR21  18428.489526  16378.418598   6506.898536   -290.494847               P   P
PR22  15687.937927   4729.543262  19574.382289   -174.708227               P   P
PR24  -9941.203691 -20060.324288  12244.744042     87.395437               P   P
PE01  13858.242246   9240.480245 -24473.290219   -609.427060               P   P
PE02 -13948.356428  -9105.512469  24460.719772    290.497325               P   P
PE03 -25524.184617 -10534.738194 -10675.813307   -544.231275               P   P
PE04  28559.596677  -2027.492331  -7501.601824   -998.744037               P   P
PE05  -7403.848616 -17159.672653 -22946.681048   -194.219163               P   P
PE07 -14757.024404  13712.771777  21701.095446   -654.942761               P   P
PE08 -28447.434160   2331.732232   7868.370434   -506.251236               P   P
PE09  14479.749028 -13710.232218 -21862.993088   -471.857156               P   P
PE10  12483.669447 -10883.526822  24526.442202   -504.461412               P   P
PE11   5744.990253 -20352.091787  20693.528970   4057.370835               P   P
PE12  17081.441328   -168.130621  24176.992795   4680.837708               P   P
PE13  -6111.650406  19837.748315 -21103.313317    427.774887               P   P
PE14  12047.271659  19294.022668 -17918.169495  -1801.348489               P   P
PE15 -17048.330073     47.284735 -24189.716013    753.838666               P   P
PE18 -25599.558061 -12383.181517   4537.931871  -1606.975928               P   P
PE19  23952.521624  11793.951719  12795.673816  -2412.651961               P   P
PE21  -1353.399115  22988.052450 -18600.549859   -726.347265               P   P
PE24  17535.160861 -23860.104889    474.863258   -541.282753               P   P
PE25   1599.224119 -23116.177377  18423.425299   -569.096662               P   P
PE26   8874.209993  27853.696269  -4663.996701   -988.515553               P   P
PE27 -16712.871470  24363.635987  -1701.833450   -268.044139               P   P
PE30 -22088.067206  10326.453220  16757.292551   -401.639663               P   P
PE31  22108.379019 -11400.104124 -16048.278549   -494.517704               P   P
PE33  17887.112455  19692.224074  12999.942923   -457.945684               P   P
PE34 -17970.310223 -19487.416779 -13175.652163   -510.203596               P   P
PE36  -8322.851372 -27828.955762   5657.153559   -354.524742               P   P
EOF
